[{"OBJECT_NAME":"SKYKRAFT-1","OBJECT_ID":"2023-001AJ","EPOCH":"2026-03-09T23:18:09.715392","MEAN_MOTION":15.58031475,"ECCENTRICITY":0.00056317,"INCLINATION":97.3275,"RA_OF_ASC_NODE":142.79,"ARG_OF_PERICENTER":86.2817,"MEAN_ANOMALY":273.9082,"EPHEMERIS_TYPE":0,"CLASSIFICATION_TYPE":"U","NORAD_CAT_ID":55041,"ELEMENT_SET_NO":999,"REV_AT_EPOCH":17756,"BSTAR":0.00061005577,"MEAN_MOTION_DOT":0.0004586,"MEAN_MOTION_DDOT":0},{"OBJECT_NAME":"EAGLEEYE","OBJECT_ID":"2024-149AS","EPOCH":"2026-03-09T17:00:04.921056","MEAN_MOTION":15.56719418,"ECCENTRICITY":0.00030534,"INCLINATION":97.3768,"RA_OF_ASC_NODE":157.6882,"ARG_OF_PERICENTER":252.5536,"MEAN_ANOMALY":107.5386,"EPHEMERIS_TYPE":0,"CLASSIFICATION_TYPE":"U","NORAD_CAT_ID":60508,"ELEMENT_SET_NO":999,"REV_AT_EPOCH":8739,"BSTAR":0.00091955521,"MEAN_MOTION_DOT":0.00066015,"MEAN_MOTION_DDOT":0}]
